SILU-1 (SILKROAD 1)     
1 42903U 17021F   18244.33314506  .00026330  00000-0  17186-3 0  9993
2 42903  42.7757 225.8150 0012330 122.5898 343.4662 15.75210818 61923
MIRATA                  
1 43015U 17073C   18243.83581376  .00001552  00000-0  12681-3 0  9994
2 43015  97.7040 171.6815 0258598  25.5311 335.8413 14.78291977 42317
MAKERSAT 0              
1 43016U 17073D   18244.29479063  .00001161  00000-0  95812-4 0  9999
2 43016  97.7073 172.2654 0259952  24.1090 337.2036 14.78256182 42378
ASTERIA                 
1 43020U 98067NH  18244.50136291  .00011548  00000-0  14121-3 0  9996
2 43020  51.6426 350.5486 0002671  89.6374 270.4926 15.60910647 44400
DELLINGR (RBLE)         
1 43021U 98067NJ  18244.52421686  .00004820  00000-0  68446-4 0  9999
2 43021  51.6413 352.9114 0002649  84.9504 275.1791 15.58472731 44371
OSIRIS-3U               
1 43027U 98067NL  18244.51978333  .00030149  00000-0  26324-3 0  9991
2 43027  51.6377 343.0863 0002907  47.3854 312.7387 15.68684405 44380
AEROCUBE 7B             
1 43042U 17071F   18244.54498651  .00002612  00000-0  76043-4 0  9995
2 43042  51.6399  29.4061 0005101 176.5233 183.5788 15.39288877 41366
AEROCUBE 7C             
1 43043U 17071G   18243.89577429  .00002763  00000-0  79834-4 0  9992
2 43043  51.6401  32.5773 0005216 175.7431 184.3598 15.39286928 41233
CHEFSAT                 
1 43044U 17071H   18244.50313949  .00003718  00000-0  10008-3 0  9995
2 43044  51.6405  28.4177 0005133 177.3242 182.7771 15.40468230 41343
ASGARDIA 1              
1 43049U 17071N   18244.45451935  .00002251  00000-0  66649-4 0  9996
2 43049  51.6403  29.5676 0002497 191.4374 168.6554 15.39410672 41319
ISARA                   
1 43050U 17071P   18243.86504338  .00003923  00000-0  10579-3 0  9995
2 43050  51.6399  31.6472 0002470 185.3101 174.7858 15.40247400 41240
FAUNA                   
1 43052U 17071R   18243.72185655  .00002047  00000-0  61226-4 0  9991
2 43052  51.6402  32.9357 0002510 183.3492 176.7476 15.39563022 41202
CORVUS BC3              
1 43118U 18004H   18243.73345520  .00000708  00000-0  33744-4 0  9997
2 43118  97.5266 306.4500 0010500 182.0393 178.0802 15.22364026 35201
MICROMAS-2A             
1 43131U 18004W   18243.86005709  .00001659  00000-0  73455-4 0  9997
2 43131  97.5277 306.7630 0009610 183.6333 176.4836 15.23047953 35236
GOMX4-B                 
1 43196U 18015E   18244.58697842  .00000707  00000-0  32259-4 0  9995
2 43196  97.3557  11.9912 0017334 247.0682 112.8724 15.23728814 32169
GOMX4-A                 
1 43197U 18015F   18244.52866163  .00000710  00000-0  32385-4 0  9998
2 43197  97.3572  11.9398 0017722 248.2916 172.6448 15.23733962 32166
1KUNS-PF                
1 43466U 98067NP  18244.51846883  .00010180  00000-0  14400-3 0  9997
2 43466  51.6402 356.6142 0000734  35.5757 324.5284 15.57164180 17583
UBAKUSAT                
1 43467U 98067NQ  18244.53093169  .00006264  00000-0  92797-4 0  9995
2 43467  51.6410 356.7005 0002937  55.3536 304.7732 15.56699583 17592
BATSU-CS1 (IRAZU)       
1 43468U 98067NR  18244.50326463  .00011543  00000-0  15994-3 0  9998
2 43468  51.6405 356.5125 0000643  21.6912 338.4107 15.57569910117574
CUBERRT                 
1 43546U 98067NU  18243.92478549  .00004238  00000-0  68323-4 0  9991
2 43546  51.6408   0.8924 0006186 116.1272 244.0356 15.55305178  7610
TEMPEST-D               
1 43547U 98067NV  18243.92851757  .00008514  00000-0  13135-3 0  9999
2 43547  51.6405   0.9174 0006478 117.3975 242.7675 15.55027827  7298
HALOSAT                 
1 43549U 98067NX  18243.80080598  .00005233  00000-0  83106-4 0  9996
2 43549  51.6406   1.5642 0006263 125.3725 234.7852 15.55165370  7285
ENDUROSAT ONE           
1 43551U 98067NZ  18243.79202496  .00008907  00000-0  13459-3 0  9994
2 43551  51.6404   1.5061 0006533 134.0310 226.1220 15.55532957  7696
EQUISAT                 
1 43552U 98067PA  18243.79279915  .00007706  00000-0  11778-3 0  9993
2 43552  51.6407   1.5120 0006809 134.3373 225.8177 15.55446487  7659
AEROCUBE 12A            
1 43556U 18046C   18243.78593137  .00000643  00000-0  36295-4 0  9995
2 43556  51.6418  11.0777 0009335 110.0874 250.1111 15.27749189  7072
AEROCUBE 12B            
1 43557U 18046D   18244.50548669  .00000724  00000-0  39251-4 0  9992
2 43557  51.6434   7.6310 0009286 112.8017 247.3944 15.27741599  7135
UITMSAT-1               
1 43589U 98067PD  18243.88120173  .00008211  00000-0  12724-3 0  9998
2 43589  51.6406   1.3499 0006104 143.6603 216.4804 15.54962311  3402
MAYA-1                  
1 43590U 98067PE  18243.55948433  .00007411  00000-0  11546-3 0  9993
2 43590  51.6405   2.9512 0006247 143.4538 216.6880 15.54984458  3287
BHUTAN-1                
1 43591U 98067PF  18243.55898530  .00007534  00000-0  11710-3 0  9995
2 43591  51.6407   2.9481 0006317 144.8472 215.2937 15.55021584  3286
SIRIUSSAT 1             
1 43595U 98067PG  18244.52998272  .00007177  00000-0  11351-3 0  9995
2 43595  51.6406 358.1790 0003960  97.1562 262.9879 15.54628365  2618
SIRIUSSAT 2             
1 43596U 98067PH  18244.53143271  .00007080  00000-0  11261-3 0  9991
2 43596  51.6415 358.1908 0004633 101.0004 259.1508 15.54494275  2612
